[{"OBJECT_NAME":"STARLINK-34735","OBJECT_ID":"2025-165S","EPOCH":"2026-03-09T18:25:19.548768","MEAN_MOTION":15.05649683,"ECCENTRICITY":6.511e-5,"INCLINATION":97.6029,"RA_OF_ASC_NODE":147.3265,"ARG_OF_PERICENTER":183.845,"MEAN_ANOMALY":176.2772,"EPHEMERIS_TYPE":0,"CLASSIFICATION_TYPE":"U","NORAD_CAT_ID":65072,"ELEMENT_SET_NO":999,"REV_AT_EPOCH":3480,"BSTAR":0.00053399856,"MEAN_MOTION_DOT":7.652e-5,"MEAN_MOTION_DDOT":0},{"OBJECT_NAME":"THOR ABLESTAR DEB","OBJECT_ID":"1961-015EX","EPOCH":"2026-03-09T22:58:31.837152","MEAN_MOTION":15.04262729,"ECCENTRICITY":0.00191468,"INCLINATION":67.4961,"RA_OF_ASC_NODE":12.7011,"ARG_OF_PERICENTER":32.2919,"MEAN_ANOMALY":327.9391,"EPHEMERIS_TYPE":0,"CLASSIFICATION_TYPE":"U","NORAD_CAT_ID":461,"ELEMENT_SET_NO":999,"REV_AT_EPOCH":37086,"BSTAR":0.0020469071,"MEAN_MOTION_DOT":0.00028661,"MEAN_MOTION_DDOT":0}]
